{
  "norad_id": 68387,
  "name": "STARLINK-37223",
  "history": [
    {
      "epoch": "2026-04-02T18:00:01.999296Z",
      "apogee_km": 278.4464383222621,
      "perigee_km": 276.37123912974675,
      "latitude_deg": 21.236153489451038,
      "longitude_deg": -44.72636745699925,
      "height_km": 280.2021987493267,
      "semi_major_axis_km": 6655.545838726004,
      "eccentricity": 0.0001559,
      "inclination_deg": 97.2826,
      "raan_deg": 233.5458,
      "arg_perigee_deg": 72.4191,
      "mean_anomaly_deg": 86.1565,
      "mean_motion_rev_day": 15.98921873
    }
  ]
}